NORAD_CAT_ID,OBJECT_NAME,OBJECT_TYPE,EPOCH,MEAN_MOTION,ECCENTRICITY,INCLINATION,RA_OF_ASC_NODE,ARG_OF_PERICENTER,MEAN_ANOMALY,BSTAR,MEAN_MOTION_DOT,MEAN_MOTION_DDOT,TLE_LINE0,TLE_LINE1,TLE_LINE2,SEMIMAJOR_AXIS,PERIOD,APOGEE,PERIGEE,DECAYED
51141.0,STARLINK-3179,PAYLOAD,2022-08-18 16:01:32,15.08848384,0.0001571,53.2206,10.6628,59.5561,300.5586,5.578100000000003e-05,6e-06,0.0,0 STARLINK-3179,1 51141U 22005AP  22230.66774100  .00000600  00000-0  55781-4 0  9997,2 51141  53.2206  10.6628 0001571  59.5561 300.5586 15.08848384 33743,6917.855,95.437,540.807,538.633,0.0
51141.0,STARLINK-3179,PAYLOAD,2022-08-19 07:55:23,15.08838316,0.0001594,53.22,7.6891,49.034,311.079,0.00024393,3.596e-05,0.0,0 STARLINK-3179,1 51141U 22005AP  22231.33013851  .00003596  00000-0  24393-3 0  9992,2 51141  53.2200   7.6891 0001594  49.0340 311.0790 15.08838316 32735,6917.886,95.438,540.8530000000002,538.648,0.0
51141.0,STARLINK-3179,PAYLOAD,2022-08-19 14:16:56,15.08842619,0.0001511,53.2206,6.4999,60.2402,299.8741,7.761600000000001e-05,9.48e-06,0.0,0 STARLINK-3179,1 51141U 22005AP  22231.59510019  .00000948  00000-0  77616-4 0  9993,2 51141  53.2206   6.4999 0001511  60.2402 299.8741 15.08842619 33887,6917.871999999999,95.437,540.783,538.692,0.0
51141.0,STARLINK-3179,PAYLOAD,2022-08-20 12:32:20,15.08839647,0.000167,53.2205,2.3387,55.5477,304.5673,5.2994e-05,5.55e-06,0.0,0 STARLINK-3179,1 51141U 22005AP  22232.52246137  .00000555  00000-0  52994-4 0  9990,2 51141  53.2205   2.3387 0001670  55.5477 304.5673 15.08839647 32915,6917.880999999999,95.438,540.9019999999998,538.591,0.0
51141.0,STARLINK-3179,PAYLOAD,2022-08-20 15:43:06,15.08853485,0.0001609,53.22,1.7436,52.9662,307.1477,-4.6122e-05,-1.022e-05,0.0,0 STARLINK-3179,1 51141U 22005AP  22232.65493474 -.00001022  00000-0 -46122-4 0  9990,2 51141  53.2200   1.7436 0001609  52.9662 307.1477 15.08853485 32936,6917.839,95.437,540.817,538.591,0.0
51141.0,STARLINK-3179,PAYLOAD,2022-08-21 12:23:07,15.08836146,0.0001641,53.2207,357.8791,63.3183,296.7977,4.5585e-05,4.37e-06,0.0,0 STARLINK-3179,1 51141U 22005AP  22233.51606364  .00000437  00000-0  45585-4 0  9999,2 51141  53.2207 357.8791 0001641  63.3183 296.7977 15.08836146 33060,6917.892,95.438,540.8919999999998,538.622,0.0
51141.0,STARLINK-3179,PAYLOAD,2022-08-21 15:33:54,15.08834027,0.0001764,53.2201,357.2812,50.1219,309.9928,-2.1203e-06,-3.22e-06,0.0,0 STARLINK-3179,1 51141U 22005AP  22233.64854613 -.00000322  00000-0 -21203-5 0  9992,2 51141  53.2201 357.2812 0001764  50.1219 309.9928 15.08834027 34196,6917.899,95.438,540.984,538.543,0.0
51141.0,STARLINK-3179,PAYLOAD,2022-08-23 16:50:52,15.08836468,0.0001776,53.2195,348.0644,54.4333,305.6824,3.366e-05,2.48e-06,0.0,0 STARLINK-3179,1 51141U 22005AP  22235.70199624  .00000248  00000-0  33660-4 0  9999,2 51141  53.2195 348.0644 0001776  54.4333 305.6824 15.08836468 34500,6917.891,95.438,540.985,538.528,0.0
51141.0,STARLINK-3179,PAYLOAD,2022-08-23 20:01:38,15.08838154,0.0001806,53.2196,347.4696,57.4641,302.6525,6.6161e-05,7.65e-06,0.0,0 STARLINK-3179,1 51141U 22005AP  22235.83447526  .00000765  00000-0  66161-4 0  9996,2 51141  53.2196 347.4696 0001806  57.4641 302.6525 15.08838154 33418,6917.886,95.438,541.0,538.502,0.0
51141.0,STARLINK-3179,PAYLOAD,2022-08-24 11:55:29,15.08843073,0.0001743,53.219,344.4964,57.922,302.1941,0.00013148,1.805e-05,0.0,0 STARLINK-3179,1 51141U 22005AP  22236.49687275  .00001805  00000-0  13148-3 0  9998,2 51141  53.2190 344.4964 0001743  57.9220 302.1941 15.08843073 33519,6917.871,95.437,540.942,538.53,0.0
51141.0,STARLINK-3179,PAYLOAD,2022-08-24 19:52:26,15.08834306,0.0001716,53.2189,343.0098,58.3642,301.7518,4.9366e-05,4.98e-06,0.0,0 STARLINK-3179,1 51141U 22005AP  22236.82808082  .00000498  00000-0  49366-4 0  9995,2 51141  53.2189 343.0098 0001716  58.3642 301.7518 15.08834306 34675,6917.898,95.438,540.95,538.576,0.0
51141.0,STARLINK-3179,PAYLOAD,2022-08-24 21:27:49,15.08831717,0.0001732,53.2189,342.7124,58.4987,301.6174,2.4858e-05,1.07e-06,0.0,0 STARLINK-3179,1 51141U 22005AP  22236.89432329  .00000107  00000-0  24858-4 0  9995,2 51141  53.2189 342.7124 0001732  58.4987 301.6174 15.08831717 33570,6917.906,95.438,540.969,538.573,0.0
51141.0,STARLINK-3179,PAYLOAD,2022-08-25 11:46:17,15.08837562,0.0001704,53.2189,340.0362,57.5677,302.548,-2.9006e-06,-3.34e-06,0.0,0 STARLINK-3179,1 51141U 22005AP  22237.49048199 -.00000334  00000-0 -29006-5 0  9995,2 51141  53.2189 340.0362 0001704  57.5677 302.5480 15.08837562 33664,6917.888000000001,95.438,540.932,538.5740000000002,0.0
51141.0,STARLINK-3179,PAYLOAD,2022-08-25 19:43:13,15.0883943,0.0001719,53.2189,338.5497,56.6417,303.4739,8.955700000000001e-06,-1.46e-06,0.0,0 STARLINK-3179,1 51141U 22005AP  22237.82168063 -.00000146  00000-0  89557-5 0  9992,2 51141  53.2189 338.5497 0001719  56.6417 303.4739 15.08839430 33712,6917.882,95.438,540.936,538.558,0.0
51141.0,STARLINK-3179,PAYLOAD,2022-08-26 03:40:08,15.08841246,0.0001725,53.2188,337.0629,56.635,303.4807,1.612e-05,-3.2e-07,0.0,0 STARLINK-3179,1 51141U 22005AP  22238.15287907 -.00000032  00000-0  16120-4 0  9997,2 51141  53.2188 337.0629 0001725  56.6350 303.4807 15.08841246 34877,6917.877,95.437,540.935,538.548,0.0
51141.0,STARLINK-3179,PAYLOAD,2022-08-26 11:37:04,15.08843971,0.0001706999999999,53.2188,335.576,56.9668,303.1488,2.4218e-05,9.7e-07,0.0,0 STARLINK-3179,1 51141U 22005AP  22238.48407651  .00000097  00000-0  24218-4 0  9990,2 51141  53.2188 335.5760 0001707  56.9668 303.1488 15.08843971 33813,6917.868,95.437,540.914,538.552,0.0
51141.0,STARLINK-3179,PAYLOAD,2022-08-26 21:09:22,15.08846451,0.0001710999999999,53.2187,333.792,55.1788,304.9365,5.4783e-05,5.84e-06,0.0,0 STARLINK-3179,1 51141U 22005AP  22238.88151293  .00000584  00000-0  54783-4 0  9993,2 51141  53.2187 333.7920 0001711  55.1788 304.9365 15.08846451 33874,6917.861,95.437,540.909,538.5419999999998,0.0
51141.0,STARLINK-3179,PAYLOAD,2022-08-27 11:27:52,15.08825973,0.0001706,53.2188,331.116,55.6233,304.492,-3.2719e-05,-8.09e-06,0.0,0 STARLINK-3179,1 51141U 22005AP  22239.47769141 -.00000809  00000-0 -32719-4 0  9993,2 51141  53.2188 331.1160 0001706  55.6233 304.4920 15.08825973 33965,6917.9230000000025,95.438,540.9680000000002,538.6080000000002,0.0
51141.0,STARLINK-3179,PAYLOAD,2022-08-27 16:14:01,15.08829589,0.000172,53.2188,330.2239,55.5788,304.5366,-9.8297e-06,-4.44e-06,0.0,0 STARLINK-3179,1 51141U 22005AP  22239.67640966 -.00000444  00000-0 -98297-5 0  9997,2 51141  53.2188 330.2239 0001720  55.5788 304.5366 15.08829589 33997,6917.9119999999975,95.438,540.967,538.587,0.0
51141.0,STARLINK-3179,PAYLOAD,2022-08-28 12:54:02,15.0884006,0.000169,53.2188,326.3583,56.6053,303.5101,2.99e-05,1.88e-06,0.0,0 STARLINK-3179,1 51141U 22005AP  22240.53752400  .00000188  00000-0  29900-4 0  9998,2 51141  53.2188 326.3583 0001690  56.6053 303.5101 15.08840060 34127,6917.88,95.438,540.914,538.576,0.0
51141.0,STARLINK-3179,PAYLOAD,2022-08-28 14:29:25,15.08841153,0.0001685,53.2188,326.061,58.1993,301.9163,4.2397e-05,3.87e-06,0.0,0 STARLINK-3179,1 51141U 22005AP  22240.60376293  .00000387  00000-0  42397-4 0  9994,2 51141  53.2188 326.0610 0001685  58.1993 301.9163 15.08841153 34134,6917.877,95.437,540.908,538.576,0.0
51141.0,STARLINK-3179,PAYLOAD,2022-08-29 11:09:25,15.08836883,0.0001603,53.2187,322.1948,54.3717,305.7425,8.7521e-05,1.105e-05,0.0,0 STARLINK-3179,1 51141U 22005AP  22241.46488394  .00001105  00000-0  87521-4 0  9992,2 51141  53.2187 322.1948 0001603  54.3717 305.7425 15.08836883 34267,6917.89,95.438,540.864,538.646,0.0
51141.0,STARLINK-3179,PAYLOAD,2022-08-29 14:20:12,15.08833273,0.0001626999999999,53.2186,321.6002,53.4677,306.6465,5.4397e-05,5.78e-06,0.0,0 STARLINK-3179,1 51141U 22005AP  22241.59736781  .00000578  00000-0  54397-4 0  9990,2 51141  53.2186 321.6002 0001627  53.4677 306.6465 15.08833273 34288,6917.901,95.438,540.891,538.64,0.0
51141.0,STARLINK-3179,PAYLOAD,2022-08-30 11:00:12,15.0884566,0.0001703,53.2185,317.7347,52.715,307.3997,5.8581e-05,6.45e-06,0.0,0 STARLINK-3179,1 51141U 22005AP  22242.45848081  .00000645  00000-0  58581-4 0  9997,2 51141  53.2185 317.7347 0001703  52.7150 307.3997 15.08845660 35527,6917.863,95.437,540.906,538.55,0.0
51141.0,STARLINK-3179,PAYLOAD,2022-08-30 14:10:58,15.08846826,0.0001712,53.2185,317.14,52.9971,307.1178,6.6682e-05,7.74e-06,0.0,0 STARLINK-3179,1 51141U 22005AP  22242.59095942  .00000774  00000-0  66682-4 0  9996,2 51141  53.2185 317.1400 0001712  52.9971 307.1178 15.08846826 34437,6917.86,95.437,540.909,538.54,0.0
51141.0,STARLINK-3179,PAYLOAD,2022-08-31 10:51:00,15.08835483,0.0001794,53.2186,313.2748,54.9598,305.1563,4.4348e-05,4.18e-06,0.0,0 STARLINK-3179,1 51141U 22005AP  22243.45208516  .00000418  00000-0  44348-4 0  9995,2 51141  53.2186 313.2748 0001794  54.9598 305.1563 15.08835483 35677,6917.894,95.438,541.0,538.518,0.0
51141.0,STARLINK-3179,PAYLOAD,2022-08-31 14:01:46,15.08836347,0.0001802,53.2186,312.6802,55.1145,305.0016,4.9334e-05,4.97e-06,0.0,0 STARLINK-3179,1 51141U 22005AP  22243.58456476  .00000497  00000-0  49334-4 0  9996,2 51141  53.2186 312.6802 0001802  55.1145 305.0016 15.08836347 34583,6917.892,95.438,541.003,538.51,0.0
51141.0,STARLINK-3179,PAYLOAD,2022-09-01 10:41:47,15.08818612,0.0001533,53.2179,308.813,52.3009,307.8122,0.00016037,2.264e-05,0.0,0 STARLINK-3179,1 51141U 22005AP  22244.44569381  .00002264  00000-0  16037-3 0  9999,2 51141  53.2179 308.8130 0001533  52.3009 307.8122 15.08818612 35826,6917.946,95.439,540.871,538.75,0.0
51141.0,STARLINK-3179,PAYLOAD,2022-09-01 13:52:33,15.08836154,0.0001629,53.2178,308.2185,49.9701,310.1434,-8.212e-05,-1.595e-05,0.0,0 STARLINK-3179,1 51141U 22005AP  22244.57816994 -.00001595  00000-0 -82120-4 0  9993,2 51141  53.2178 308.2185 0001629  49.9701 310.1434 15.08836154 35842,6917.892,95.438,540.884,538.63,0.0
